[{"OBJECT_NAME":"ONEWEB-0371","OBJECT_ID":"2021-090U","EPOCH":"2026-04-20T06:22:47.866656","MEAN_MOTION":13.19724561,"ECCENTRICITY":0.0001758,"INCLINATION":87.9164,"RA_OF_ASC_NODE":316.5166,"ARG_OF_PERICENTER":83.0541,"MEAN_ANOMALY":277.0792,"EPHEMERIS_TYPE":0,"CLASSIFICATION_TYPE":"U","NORAD_CAT_ID":49297,"ELEMENT_SET_NO":999,"REV_AT_EPOCH":21881,"BSTAR":3.2139000000000005e-05,"MEAN_MOTION_DOT":2.6e-07,"MEAN_MOTION_DDOT":0.0},{"OBJECT_NAME":"ONEWEB-0372","OBJECT_ID":"2021-090V","EPOCH":"2026-04-19T18:04:05.250720","MEAN_MOTION":13.20769228,"ECCENTRICITY":0.0001848,"INCLINATION":87.9139,"RA_OF_ASC_NODE":286.104,"ARG_OF_PERICENTER":91.448,"MEAN_ANOMALY":268.6865,"EPHEMERIS_TYPE":0,"CLASSIFICATION_TYPE":"U","NORAD_CAT_ID":49298,"ELEMENT_SET_NO":999,"REV_AT_EPOCH":22212,"BSTAR":7.1642e-05,"MEAN_MOTION_DOT":4.2e-07,"MEAN_MOTION_DDOT":0.0},{"OBJECT_NAME":"ONEWEB-0373","OBJECT_ID":"2021-090W","EPOCH":"2026-04-20T05:37:28.645248","MEAN_MOTION":13.20769827,"ECCENTRICITY":0.0001701,"INCLINATION":87.9135,"RA_OF_ASC_NODE":286.0104,"ARG_OF_PERICENTER":95.5944,"MEAN_ANOMALY":264.5383,"EPHEMERIS_TYPE":0,"CLASSIFICATION_TYPE":"U","NORAD_CAT_ID":49299,"ELEMENT_SET_NO":999,"REV_AT_EPOCH":22337,"BSTAR":-0.00016959,"MEAN_MOTION_DOT":-5.6e-07,"MEAN_MOTION_DDOT":0.0},{"OBJECT_NAME":"ONEWEB-0374","OBJECT_ID":"2021-090X","EPOCH":"2026-04-20T06:27:40.054176","MEAN_MOTION":13.14503269,"ECCENTRICITY":0.0001883,"INCLINATION":87.8926,"RA_OF_ASC_NODE":301.2567,"ARG_OF_PERICENTER":110.1471,"MEAN_ANOMALY":249.9862,"EPHEMERIS_TYPE":0,"CLASSIFICATION_TYPE":"U","NORAD_CAT_ID":49300,"ELEMENT_SET_NO":999,"REV_AT_EPOCH":21995,"BSTAR":-0.00022355,"MEAN_MOTION_DOT":-7e-07,"MEAN_MOTION_DDOT":0.0},{"OBJECT_NAME":"ONEWEB-0375","OBJECT_ID":"2021-090Y","EPOCH":"2026-04-19T22:02:54.853152","MEAN_MOTION":13.20773071,"ECCENTRICITY":0.0001673,"INCLINATION":87.9138,"RA_OF_ASC_NODE":286.0636,"ARG_OF_PERICENTER":112.2964,"MEAN_ANOMALY":247.8347,"EPHEMERIS_TYPE":0,"CLASSIFICATION_TYPE":"U","NORAD_CAT_ID":49301,"ELEMENT_SET_NO":999,"REV_AT_EPOCH":22283,"BSTAR":-8.775800000000001e-05,"MEAN_MOTION_DOT":-2.3e-07,"MEAN_MOTION_DDOT":0.0},{"OBJECT_NAME":"ONEWEB-0376","OBJECT_ID":"2021-090Z","EPOCH":"2026-04-20T06:20:32.105472","MEAN_MOTION":13.19725563,"ECCENTRICITY":0.0001918,"INCLINATION":87.9171,"RA_OF_ASC_NODE":316.5136,"ARG_OF_PERICENTER":82.9759,"MEAN_ANOMALY":277.1592,"EPHEMERIS_TYPE":0,"CLASSIFICATION_TYPE":"U","NORAD_CAT_ID":49302,"ELEMENT_SET_NO":999,"REV_AT_EPOCH":21881,"BSTAR":6.222800000000001e-06,"MEAN_MOTION_DOT":1.5e-07,"MEAN_MOTION_DDOT":0.0},{"OBJECT_NAME":"ONEWEB-0377","OBJECT_ID":"2021-090AA","EPOCH":"2026-04-20T04:59:03.035328","MEAN_MOTION":13.20770109,"ECCENTRICITY":0.0001549,"INCLINATION":87.9138,"RA_OF_ASC_NODE":286.0073,"ARG_OF_PERICENTER":94.4025,"MEAN_ANOMALY":265.7285,"EPHEMERIS_TYPE":0,"CLASSIFICATION_TYPE":"U","NORAD_CAT_ID":49303,"ELEMENT_SET_NO":999,"REV_AT_EPOCH":22286,"BSTAR":0.00010255,"MEAN_MOTION_DOT":5.5e-07,"MEAN_MOTION_DDOT":0.0},{"OBJECT_NAME":"ONEWEB-0378","OBJECT_ID":"2021-090AB","EPOCH":"2026-04-20T05:30:50.105376","MEAN_MOTION":13.20770947,"ECCENTRICITY":0.0001809,"INCLINATION":87.9131,"RA_OF_ASC_NODE":286.0114,"ARG_OF_PERICENTER":98.3245,"MEAN_ANOMALY":261.8094,"EPHEMERIS_TYPE":0,"CLASSIFICATION_TYPE":"U","NORAD_CAT_ID":49304,"ELEMENT_SET_NO":999,"REV_AT_EPOCH":22213,"BSTAR":-0.0007781200000000001,"MEAN_MOTION_DOT":-3.03e-06,"MEAN_MOTION_DDOT":0.0},{"OBJECT_NAME":"ONEWEB-0379","OBJECT_ID":"2021-090AC","EPOCH":"2026-04-20T06:20:48.999264","MEAN_MOTION":13.14502239,"ECCENTRICITY":0.0001803,"INCLINATION":87.8927,"RA_OF_ASC_NODE":301.2686,"ARG_OF_PERICENTER":94.5544,"MEAN_ANOMALY":265.5792,"EPHEMERIS_TYPE":0,"CLASSIFICATION_TYPE":"U","NORAD_CAT_ID":49305,"ELEMENT_SET_NO":999,"REV_AT_EPOCH":21995,"BSTAR":-0.00032222,"MEAN_MOTION_DOT":-1.07e-06,"MEAN_MOTION_DDOT":0.0},{"OBJECT_NAME":"ONEWEB-0380","OBJECT_ID":"2021-090AD","EPOCH":"2026-04-20T00:48:25.994016","MEAN_MOTION":13.19723602,"ECCENTRICITY":0.0001573,"INCLINATION":87.9157,"RA_OF_ASC_NODE":316.5702,"ARG_OF_PERICENTER":91.6094,"MEAN_ANOMALY":268.5219,"EPHEMERIS_TYPE":0,"CLASSIFICATION_TYPE":"U","NORAD_CAT_ID":49306,"ELEMENT_SET_NO":999,"REV_AT_EPOCH":21875,"BSTAR":-6.629300000000001e-05,"MEAN_MOTION_DOT":-1.4e-07,"MEAN_MOTION_DDOT":0.0},{"OBJECT_NAME":"ONEWEB-0381","OBJECT_ID":"2021-090AE","EPOCH":"2026-04-20T04:54:17.529984","MEAN_MOTION":13.20772862,"ECCENTRICITY":0.0001759,"INCLINATION":87.9141,"RA_OF_ASC_NODE":286.0124,"ARG_OF_PERICENTER":102.1014,"MEAN_ANOMALY":258.0317,"EPHEMERIS_TYPE":0,"CLASSIFICATION_TYPE":"U","NORAD_CAT_ID":49307,"ELEMENT_SET_NO":999,"REV_AT_EPOCH":22217,"BSTAR":8.244300000000001e-05,"MEAN_MOTION_DOT":4.7e-07,"MEAN_MOTION_DDOT":0.0},{"OBJECT_NAME":"ONEWEB-0382","OBJECT_ID":"2021-090AF","EPOCH":"2026-04-20T04:36:06.645312","MEAN_MOTION":13.20773519,"ECCENTRICITY":0.0001885,"INCLINATION":87.9136,"RA_OF_ASC_NODE":286.0103,"ARG_OF_PERICENTER":103.0323,"MEAN_ANOMALY":257.1021,"EPHEMERIS_TYPE":0,"CLASSIFICATION_TYPE":"U","NORAD_CAT_ID":49308,"ELEMENT_SET_NO":999,"REV_AT_EPOCH":22216,"BSTAR":0.00030463,"MEAN_MOTION_DOT":1.37e-06,"MEAN_MOTION_DDOT":0.0},{"OBJECT_NAME":"ONEWEB-0383","OBJECT_ID":"2021-090AG","EPOCH":"2026-04-20T06:11:40.859520","MEAN_MOTION":13.14502003,"ECCENTRICITY":0.0001872,"INCLINATION":87.8935,"RA_OF_ASC_NODE":301.2571,"ARG_OF_PERICENTER":94.5215,"MEAN_ANOMALY":265.6129,"EPHEMERIS_TYPE":0,"CLASSIFICATION_TYPE":"U","NORAD_CAT_ID":49309,"ELEMENT_SET_NO":999,"REV_AT_EPOCH":21998,"BSTAR":-0.00038355,"MEAN_MOTION_DOT":-1.29e-06,"MEAN_MOTION_DDOT":0.0},{"OBJECT_NAME":"ONEWEB-0384","OBJECT_ID":"2021-090AH","EPOCH":"2026-04-20T04:21:57.621024","MEAN_MOTION":13.20809568,"ECCENTRICITY":0.0002109,"INCLINATION":87.9138,"RA_OF_ASC_NODE":286.0559,"ARG_OF_PERICENTER":105.9379,"MEAN_ANOMALY":254.1987,"EPHEMERIS_TYPE":0,"CLASSIFICATION_TYPE":"U","NORAD_CAT_ID":49310,"ELEMENT_SET_NO":999,"REV_AT_EPOCH":22217,"BSTAR":-0.00018728,"MEAN_MOTION_DOT":-6.3e-07,"MEAN_MOTION_DDOT":0.0},{"OBJECT_NAME":"ONEWEB-0385","OBJECT_ID":"2021-090AJ","EPOCH":"2026-04-20T04:24:44.187264","MEAN_MOTION":13.20769525,"ECCENTRICITY":0.0001828,"INCLINATION":87.9136,"RA_OF_ASC_NODE":286.0167,"ARG_OF_PERICENTER":99.7229,"MEAN_ANOMALY":260.4111,"EPHEMERIS_TYPE":0,"CLASSIFICATION_TYPE":"U","NORAD_CAT_ID":49311,"ELEMENT_SET_NO":999,"REV_AT_EPOCH":22214,"BSTAR":-1.5653e-05,"MEAN_MOTION_DOT":7e-08,"MEAN_MOTION_DDOT":0.0},{"OBJECT_NAME":"ONEWEB-0386","OBJECT_ID":"2021-090AK","EPOCH":"2026-04-20T04:49:43.972032","MEAN_MOTION":13.20770361,"ECCENTRICITY":0.0001933,"INCLINATION":87.9145,"RA_OF_ASC_NODE":286.0005,"ARG_OF_PERICENTER":100.0529,"MEAN_ANOMALY":260.0823,"EPHEMERIS_TYPE":0,"CLASSIFICATION_TYPE":"U","NORAD_CAT_ID":49312,"ELEMENT_SET_NO":999,"REV_AT_EPOCH":22216,"BSTAR":-0.00044458,"MEAN_MOTION_DOT":-1.68e-06,"MEAN_MOTION_DDOT":0.0}]