ONEWEB-0371             
1 49297U 21090U   26110.26583179  .00000026  00000+0  32139-4 0  9993
2 49297  87.9164 316.5166 0001758  83.0541 277.0792 13.19724561218811
ONEWEB-0372             
1 49298U 21090V   26109.75283855  .00000042  00000+0  71642-4 0  9994
2 49298  87.9139 286.1040 0001848  91.4480 268.6865 13.20769228222129
ONEWEB-0373             
1 49299U 21090W   26110.23435932 -.00000056  00000+0 -16959-3 0  9991
2 49299  87.9135 286.0104 0001701  95.5944 264.5383 13.20769827223377
ONEWEB-0374             
1 49300U 21090X   26110.26921359 -.00000070  00000+0 -22355-3 0  9993
2 49300  87.8926 301.2567 0001883 110.1471 249.9862 13.14503269219957
ONEWEB-0375             
1 49301U 21090Y   26109.91869043 -.00000023  00000+0 -87758-4 0  9992
2 49301  87.9138 286.0636 0001673 112.2964 247.8347 13.20773071222831
ONEWEB-0376             
1 49302U 21090Z   26110.26426048  .00000015  00000+0  62228-5 0  9992
2 49302  87.9171 316.5136 0001918  82.9759 277.1592 13.19725563218812
ONEWEB-0377             
1 49303U 21090AA  26110.20767402  .00000055  00000+0  10255-3 0  9994
2 49303  87.9138 286.0073 0001549  94.4025 265.7285 13.20770109222861
ONEWEB-0378             
1 49304U 21090AB  26110.22974659 -.00000303  00000+0 -77812-3 0  9991
2 49304  87.9131 286.0114 0001809  98.3245 261.8094 13.20770947222132
ONEWEB-0379             
1 49305U 21090AC  26110.26445601 -.00000107  00000+0 -32222-3 0  9994
2 49305  87.8927 301.2686 0001803  94.5544 265.5792 13.14502239219955
ONEWEB-0380             
1 49306U 21090AD  26110.03363419 -.00000014  00000+0 -66293-4 0  9999
2 49306  87.9157 316.5702 0001573  91.6094 268.5219 13.19723602218750
ONEWEB-0381             
1 49307U 21090AE  26110.20436956  .00000047  00000+0  82443-4 0  9995
2 49307  87.9141 286.0124 0001759 102.1014 258.0317 13.20772862222177
ONEWEB-0382             
1 49308U 21090AF  26110.19174358  .00000137  00000+0  30463-3 0  9993
2 49308  87.9136 286.0103 0001885 103.0323 257.1021 13.20773519222163
ONEWEB-0383             
1 49309U 21090AG  26110.25811180 -.00000129  00000+0 -38355-3 0  9993
2 49309  87.8935 301.2571 0001872  94.5215 265.6129 13.14502003219989
ONEWEB-0384             
1 49310U 21090AH  26110.18191691 -.00000063  00000+0 -18728-3 0  9994
2 49310  87.9138 286.0559 0002109 105.9379 254.1987 13.20809568222178
ONEWEB-0385             
1 49311U 21090AJ  26110.18384476  .00000007  00000+0 -15653-4 0  9992
2 49311  87.9136 286.0167 0001828  99.7229 260.4111 13.20769525222147
ONEWEB-0386             
1 49312U 21090AK  26110.20120338 -.00000168  00000+0 -44458-3 0  9994
2 49312  87.9145 286.0005 0001933 100.0529 260.0823 13.20770361222163
